KUIPER-00027            
1 63740U 25088S   25253.41406904 -.00091414  00000+0 -72414-2 0  9998
2 63740  51.8925 173.2705 0003281 318.0263  42.0456 15.00532915 20918
KUIPER-00028            
1 63741U 25088T   25253.42970919 -.00075152  00000+0 -49703-2 0  9998
2 63741  51.8884 171.8335 0004405 281.8901  78.1579 15.07168569 21342
KUIPER-00029            
1 63742U 25088U   25253.58335648 -.01360794  00000+0 -84439-1 0  9994
2 63742  51.8832 170.3338 0005083 238.7476 197.1009 15.12241336  5380
KUIPER-00030            
1 63743U 25088V   25253.20435374  .00007924  00000+0  10659-2 0  9995
2 63743  51.9015 188.6362 0013423 197.5120 162.5381 14.79939953 20904
KUIPER-00031            
1 63744U 25088W   25253.58335648  .00005330  00000+0  53173-3 0  9998
2 63744  51.8898 173.4872 0001558 215.1853  91.0468 14.92930196  4142
KUIPER-00032            
1 63745U 25088X   25253.07655377  .00013653  00000+0  47553-3 0  9999
2 63745  51.8722 172.3934 0004787 179.4076 180.6914 15.29941527 21839
KUIPER-00033            
1 63746U 25088Y   25253.25412594  .00005435  00000+0  74105-3 0  9994
2 63746  51.9020 204.4763 0003041 325.3645  34.7119 14.79950824 20889
KUIPER-00034            
1 63747U 25088Z   25253.27081143 -.00190578  00000+0 -90811-2 0  9995
2 63747  51.8789 170.0838 0001175 169.7422 190.3581 15.19488651 21041
